{"type": "FeatureCollection", "features": [{"type": "Feature", "properties": {"norad_id": 24946, "name": "IRIDIUM 33", "group": "iridium-33-debris", "lat": 49.01815191832001, "lon": -118.872858230232, "alt_km": 766.6994622772645, "timestamp": "2025-12-19T16:54:44.646929+00:00", "meta": {"OBJECT_NAME": "IRIDIUM 33", "OBJECT_ID": "1997-051C", "EPOCH": "2025-12-19T04:35:25.287360", "MEAN_MOTION": 14.35041788, "ECCENTRICITY": 0.00078022, "INCLINATION": 86.3867, "RA_OF_ASC_NODE": 65.5138, "ARG_OF_PERICENTER": 178.4529, "MEAN_ANOMALY": 181.6693, "EPHEMERIS_TYPE": 0, "CLASSIFICATION_TYPE": "U", "NORAD_CAT_ID": 24946, "ELEMENT_SET_NO": 999, "REV_AT_EPOCH": 47927, "BSTAR": 8.9488594e-05, "MEAN_MOTION_DOT": 2.75e-06, "MEAN_MOTION_DDOT": 0}, "tle": {"line1": "1 24946U 97051C   25353.19126490  .00000275  00000+0  89489-4 0  9992", "line2": "2 24946  86.3867  65.5138 0007802 178.4529 181.6693 14.35041788479270"}}, "geometry": {"type": "Point", "coordinates": [-118.872858230232, 49.01815191832001]}}, {"type": "Feature", "properties": {"norad_id": 33773, "name": "IRIDIUM 33 DEB", "group": "iridium-33-debris", "lat": -65.99776929818424, "lon": 49.51095555058858, "alt_km": 764.097525358553, "timestamp": "2025-12-19T16:54:44.646976+00:00", "meta": {"OBJECT_NAME": "IRIDIUM 33 DEB", "OBJECT_ID": "1997-051L", "EPOCH": "2025-12-19T05:34:19.132896", "MEAN_MOTION": 14.43270064, "ECCENTRICITY": 0.00130039, "INCLINATION": 86.4004, "RA_OF_ASC_NODE": 57.8383, "ARG_OF_PERICENTER": 127.5412, "MEAN_ANOMALY": 232.6973, "EPHEMERIS_TYPE": 0, "CLASSIFICATION_TYPE": "U", "NORAD_CAT_ID": 33773, "ELEMENT_SET_NO": 999, "REV_AT_EPOCH": 88441, "BSTAR": 0.00021422599, "MEAN_MOTION_DOT": 7.42e-06, "MEAN_MOTION_DDOT": 0}, "tle": {"line1": "1 33773U 97051L   25353.23216589  .00000742  00000+0  21423-3 0  9996", "line2": "2 33773  86.4004  57.8383 0013003 127.5412 232.6973 14.43270064884418"}}, "geometry": {"type": "Point", "coordinates": [49.51095555058858, -65.99776929818424]}}, {"type": "Feature", "properties": {"norad_id": 33775, "name": "IRIDIUM 33 DEB", "group": "iridium-33-debris", "lat": -27.60427432961647, "lon": 44.6741983327186, "alt_km": 769.5381566071837, "timestamp": "2025-12-19T16:54:44.646993+00:00", "meta": {"OBJECT_NAME": "IRIDIUM 33 DEB", "OBJECT_ID": "1997-051N", "EPOCH": "2025-12-19T05:41:18.511584", "MEAN_MOTION": 14.41481598, "ECCENTRICITY": 0.00149197, "INCLINATION": 86.363, "RA_OF_ASC_NODE": 46.7797, "ARG_OF_PERICENTER": 135.0878, "MEAN_ANOMALY": 292.0946, "EPHEMERIS_TYPE": 0, "CLASSIFICATION_TYPE": "U", "NORAD_CAT_ID": 33775, "ELEMENT_SET_NO": 999, "REV_AT_EPOCH": 88234, "BSTAR": 0.00022883463, "MEAN_MOTION_DOT": 7.63e-06, "MEAN_MOTION_DDOT": 0}, "tle": {"line1": "1 33775U 97051N   25353.23701981  .00000763  00000+0  22883-3 0  9997", "line2": "2 33775  86.3630  46.7797 0014919 135.0878 292.0946 14.41481598882341"}}, "geometry": {"type": "Point", "coordinates": [44.6741983327186, -27.60427432961647]}}, {"type": "Feature", "properties": {"norad_id": 33776, "name": "IRIDIUM 33 DEB", "group": "iridium-33-debris", "lat": 58.690980720535165, "lon": -108.08418163321889, "alt_km": 751.3192530873903, "timestamp": "2025-12-19T16:54:44.647007+00:00", "meta": {"OBJECT_NAME": "IRIDIUM 33 DEB", "OBJECT_ID": "1997-051P", "EPOCH": "2025-12-19T04:55:47.968320", "MEAN_MOTION": 14.38245973, "ECCENTRICITY": 0.00151018, "INCLINATION": 86.4035, "RA_OF_ASC_NODE": 78.0608, "ARG_OF_PERICENTER": 169.4849, "MEAN_ANOMALY": 248.2984, "EPHEMERIS_TYPE": 0, "CLASSIFICATION_TYPE": "U", "NORAD_CAT_ID": 33776, "ELEMENT_SET_NO": 999, "REV_AT_EPOCH": 88175, "BSTAR": 0.00020483823, "MEAN_MOTION_DOT": 6.43e-06, "MEAN_MOTION_DDOT": 0}, "tle": {"line1": "1 33776U 97051P   25353.20541630  .00000643  00000+0  20484-3 0  9990", "line2": "2 33776  86.4035  78.0608 0015101 169.4849 248.2984 14.38245973881754"}}, "geometry": {"type": "Point", "coordinates": [-108.08418163321889, 58.690980720535165]}}, {"type": "Feature", "properties": {"norad_id": 33777, "name": "IRIDIUM 33 DEB", "group": "iridium-33-debris", "lat": -15.539504814695375, "lon": 31.164528864431556, "alt_km": 714.4258229182387, "timestamp": "2025-12-19T16:54:44.647019+00:00", "meta": {"OBJECT_NAME": "IRIDIUM 33 DEB", "OBJECT_ID": "1997-051Q", "EPOCH": "2025-12-19T03:47:07.455552", "MEAN_MOTION": 14.5565724, "ECCENTRICITY": 0.00056471, "INCLINATION": 86.3778, "RA_OF_ASC_NODE": 32.4117, "ARG_OF_PERICENTER": 220.5643, "MEAN_ANOMALY": 139.5144, "EPHEMERIS_TYPE": 0, "CLASSIFICATION_TYPE": "U", "NORAD_CAT_ID": 33777, "ELEMENT_SET_NO": 999, "REV_AT_EPOCH": 88627, "BSTAR": 0.00061273741, "MEAN_MOTION_DOT": 2.696e-05, "MEAN_MOTION_DDOT": 0}, "tle": {"line1": "1 33777U 97051Q   25353.15772518  .00002696  00000+0  61274-3 0  9998", "line2": "2 33777  86.3778  32.4117 0005647 220.5643 139.5144 14.55657240886277"}}, "geometry": {"type": "Point", "coordinates": [31.164528864431556, -15.539504814695375]}}, {"type": "Feature", "properties": {"norad_id": 33850, "name": "IRIDIUM 33 DEB", "group": "iridium-33-debris", "lat": -29.688413330682845, "lon": 25.094167695311945, "alt_km": 766.3735233840243, "timestamp": "2025-12-19T16:54:44.647032+00:00", "meta": {"OBJECT_NAME": "IRIDIUM 33 DEB", "OBJECT_ID": "1997-051T", "EPOCH": "2025-12-19T04:01:16.980096", "MEAN_MOTION": 14.42160199, "ECCENTRICITY": 0.00128264, "INCLINATION": 86.3412, "RA_OF_ASC_NODE": 27.4157, "ARG_OF_PERICENTER": 141.7137, "MEAN_ANOMALY": 281.8035, "EPHEMERIS_TYPE": 0, "CLASSIFICATION_TYPE": "U", "NORAD_CAT_ID": 33850, "ELEMENT_SET_NO": 999, "REV_AT_EPOCH": 88245, "BSTAR": 0.00027148947, "MEAN_MOTION_DOT": 9.14e-06, "MEAN_MOTION_DDOT": 0}, "tle": {"line1": "1 33850U 97051T   25353.16755764  .00000914  00000+0  27149-3 0  9999", "line2": "2 33850  86.3412  27.4157 0012826 141.7137 281.8035 14.42160199882455"}}, "geometry": {"type": "Point", "coordinates": [25.094167695311945, -29.688413330682845]}}, {"type": "Feature", "properties": {"norad_id": 33853, "name": "IRIDIUM 33 DEB", "group": "iridium-33-debris", "lat": -3.5455592146052095, "lon": -13.491461029494454, "alt_km": 1018.3458173178469, "timestamp": "2025-12-19T16:54:44.647046+00:00", "meta": {"OBJECT_NAME": "IRIDIUM 33 DEB", "OBJECT_ID": "1997-051W", "EPOCH": "2025-12-19T00:02:12.626592", "MEAN_MOTION": 13.99096092, "ECCENTRICITY": 0.02071458, "INCLINATION": 85.9999, "RA_OF_ASC_NODE": 347.0651, "ARG_OF_PERICENTER": 216.4718, "MEAN_ANOMALY": 199.1935, "EPHEMERIS_TYPE": 0, "CLASSIFICATION_TYPE": "U", "NORAD_CAT_ID": 33853, "ELEMENT_SET_NO": 999, "REV_AT_EPOCH": 85433, "BSTAR": 0.0012839679, "MEAN_MOTION_DOT": 2.25e-05, "MEAN_MOTION_DDOT": 0}, "tle": {"line1": "1 33853U 97051W   25353.00153503  .00002250  00000+0  12840-2 0  9994", "line2": "2 33853  85.9999 347.0651 0207145 216.4718 199.1935 13.99096092854335"}}, "geometry": {"type": "Point", "coordinates": [-13.491461029494454, -3.5455592146052095]}}, {"type": "Feature", "properties": {"norad_id": 33860, "name": "IRIDIUM 33 DEB", "group": "iridium-33-debris", "lat": 3.2909439504429434, "lon": -156.05305243872257, "alt_km": 676.1493024974307, "timestamp": "2025-12-19T16:54:44.647057+00:00", "meta": {"OBJECT_NAME": "IRIDIUM 33 DEB", "OBJECT_ID": "1997-051AD", "EPOCH": "2025-12-19T03:17:22.779744", "MEAN_MOTION": 14.67442314, "ECCENTRICITY": 0.00066537, "INCLINATION": 86.3826, "RA_OF_ASC_NODE": 24.4066, "ARG_OF_PERICENTER": 333.9238, "MEAN_ANOMALY": 86.0501, "EPHEMERIS_TYPE": 0, "CLASSIFICATION_TYPE": "U", "NORAD_CAT_ID": 33860, "ELEMENT_SET_NO": 999, "REV_AT_EPOCH": 88816, "BSTAR": 0.00083794443, "MEAN_MOTION_DOT": 4.764e-05, "MEAN_MOTION_DDOT": 0}, "tle": {"line1": "1 33860U 97051AD  25353.13706921  .00004764  00000+0  83794-3 0  9993", "line2": "2 33860  86.3826  24.4066 0006653 333.9238  86.0501 14.67442314888165"}}, "geometry": {"type": "Point", "coordinates": [-156.05305243872257, 3.2909439504429434]}}, {"type": "Feature", "properties": {"norad_id": 33862, "name": "IRIDIUM 33 DEB", "group": "iridium-33-debris", "lat": -83.55063607647689, "lon": -111.78723320945872, "alt_km": 698.7780056303454, "timestamp": "2025-12-19T16:54:44.647069+00:00", "meta": {"OBJECT_NAME": "IRIDIUM 33 DEB", "OBJECT_ID": "1997-051AF", "EPOCH": "2025-12-19T04:34:26.831712", "MEAN_MOTION": 14.69572736, "ECCENTRICITY": 0.00528294, "INCLINATION": 86.4085, "RA_OF_ASC_NODE": 34.686, "ARG_OF_PERICENTER": 47.5905, "MEAN_ANOMALY": 19.3889, "EPHEMERIS_TYPE": 0, "CLASSIFICATION_TYPE": "U", "NORAD_CAT_ID": 33862, "ELEMENT_SET_NO": 999, "REV_AT_EPOCH": 88918, "BSTAR": 0.00095208441, "MEAN_MOTION_DOT": 5.8e-05, "MEAN_MOTION_DDOT": 0}, "tle": {"line1": "1 33862U 97051AF  25353.19058833  .00005800  00000+0  95208-3 0  9998", "line2": "2 33862  86.4085  34.6860 0052829  47.5905  19.3889 14.69572736889180"}}, "geometry": {"type": "Point", "coordinates": [-111.78723320945872, -83.55063607647689]}}, {"type": "Feature", "properties": {"norad_id": 33866, "name": "IRIDIUM 33 DEB", "group": "iridium-33-debris", "lat": -57.02917249710691, "lon": 84.36406245699241, "alt_km": 893.8053086061209, "timestamp": "2025-12-19T16:54:44.647081+00:00", "meta": {"OBJECT_NAME": "IRIDIUM 33 DEB", "OBJECT_ID": "1997-051AK", "EPOCH": "2025-12-19T05:31:26.092704", "MEAN_MOTION": 14.25293567, "ECCENTRICITY": 0.01149116, "INCLINATION": 86.3, "RA_OF_ASC_NODE": 90.2898, "ARG_OF_PERICENTER": 140.8072, "MEAN_ANOMALY": 248.406, "EPHEMERIS_TYPE": 0, "CLASSIFICATION_TYPE": "U", "NORAD_CAT_ID": 33866, "ELEMENT_SET_NO": 999, "REV_AT_EPOCH": 86903, "BSTAR": 0.00041122305, "MEAN_MOTION_DOT": 1.057e-05, "MEAN_MOTION_DDOT": 0}, "tle": {"line1": "1 33866U 97051AK  25353.23016311  .00001057  00000+0  41122-3 0  9998", "line2": "2 33866  86.3000  90.2898 0114911 140.8072 248.4060 14.25293567869034"}}, "geometry": {"type": "Point", "coordinates": [84.36406245699241, -57.02917249710691]}}]}